STARLINK-5604           
1 55420U 23014AF  26076.87038383  .00000982  00000+0  90084-4 0  9990
2 55420  70.0011  23.8558 0002953 270.9288  89.1533 14.98329707173777
STARLINK-5598           
1 55421U 23014AG  26076.37433044  .00002787  00000+0  24136-3 0  9998
2 55421  69.9994  65.0680 0003098 273.9358  86.1447 14.98315825172711
STARLINK-5006           
1 55422U 23014AH  26076.35344811 -.00000472  00000+0 -31768-4 0  9991
2 55422  69.9992  64.9900 0003169 269.8532  90.2264 14.98329551172714
STARLINK-5068           
1 55423U 23014AJ  26076.39101452  .00001159  00000+0  10491-3 0  9998
2 55423  69.9995  65.1237 0003114 272.1497  87.9305 14.98327392172711
STARLINK-5615           
1 55425U 23014AL  26076.38266557  .00000420  00000+0  43011-4 0  9992
2 55425  69.9993  65.0974 0003135 270.4245  89.6554 14.98329355172719
STARLINK-5638           
1 55426U 23014AM  26076.39935850  .00000391  00000+0  40544-4 0  9998
2 55426  69.9993  65.1531 0003039 273.9707  86.1105 14.98333495172718
STARLINK-5064           
1 55428U 23014AP  26076.40770861 -.00000277  00000+0 -15448-4 0  9991
2 55428  69.9994  65.1846 0003131 267.8069  92.2731 14.98332444172712
STARLINK-5645           
1 55429U 23014AQ  26076.39519021 -.00000370  00000+0 -23208-4 0  9996
2 55429  69.9995  65.1392 0003142 276.1111  83.9690 14.98329252172717
STARLINK-5642           
1 55430U 23014AR  26076.45381978 -.00000047  00000+0  38320-5 0  9995
2 55430  69.9987  84.8028 0002987 272.5489  87.5328 14.98332148172231
STARLINK-5643           
1 55431U 23014AS  26076.40353624  .00000341  00000+0  36379-4 0  9995
2 55431  69.9992  65.1697 0003044 271.6198  88.4612 14.98331833172713
STARLINK-5637           
1 55432U 23014AT  26076.46234958 -.00000247  00000+0 -12943-4 0  9998
2 55432  69.9992  84.8338 0003039 258.1801 101.9017 14.98327211172231
STARLINK-5570           
1 55433U 23014AU  26076.44964187  .00002416  00000+0  21022-3 0  9996
2 55433  69.9986  84.7871 0002676 267.2964  92.7889 14.98327633172235
STARLINK-5621           
1 55434U 23014AV  26076.73755764 -.00000722  00000+0 -52719-4 0  9996
2 55434  69.9989  84.1889 0003311 267.3008  92.7772 14.98325203172275
STARLINK-5626           
1 55435U 23014AW  26076.46217266 -.00000403  00000+0 -25942-4 0  9991
2 55435  69.9987  84.8341 0003235 266.7515  93.3274 14.98331107172235
STARLINK-5640           
1 55436U 23014AX  26076.40794615  .00001596  00000+0  14158-3 0  9992
2 55436  69.9988  85.0451 0003248 273.1449  86.9338 14.98320397172221
STARLINK-5074           
1 55438U 23014AZ  26076.19048917 -.00000010  00000+0  69953-5 0  9993
2 55438  70.0002  45.3725 0003013 269.8944  90.1870 14.98326604173189
