[{"OBJECT_NAME":"STARLINK-5604","OBJECT_ID":"2023-014AF","EPOCH":"2026-03-17T20:53:21.162912","MEAN_MOTION":14.98329707,"ECCENTRICITY":0.0002953,"INCLINATION":70.0011,"RA_OF_ASC_NODE":23.8558,"ARG_OF_PERICENTER":270.9288,"MEAN_ANOMALY":89.1533,"EPHEMERIS_TYPE":0,"CLASSIFICATION_TYPE":"U","NORAD_CAT_ID":55420,"ELEMENT_SET_NO":999,"REV_AT_EPOCH":17377,"BSTAR":9.0084e-5,"MEAN_MOTION_DOT":9.82e-6,"MEAN_MOTION_DDOT":0},{"OBJECT_NAME":"STARLINK-5598","OBJECT_ID":"2023-014AG","EPOCH":"2026-03-17T08:59:02.150016","MEAN_MOTION":14.98315825,"ECCENTRICITY":0.00030981,"INCLINATION":69.9994,"RA_OF_ASC_NODE":65.068,"ARG_OF_PERICENTER":273.9358,"MEAN_ANOMALY":86.1447,"EPHEMERIS_TYPE":0,"CLASSIFICATION_TYPE":"U","NORAD_CAT_ID":55421,"ELEMENT_SET_NO":999,"REV_AT_EPOCH":17271,"BSTAR":0.00024135746,"MEAN_MOTION_DOT":2.787e-5,"MEAN_MOTION_DDOT":0},{"OBJECT_NAME":"STARLINK-5006","OBJECT_ID":"2023-014AH","EPOCH":"2026-03-17T08:28:57.916704","MEAN_MOTION":14.98329551,"ECCENTRICITY":0.00031696,"INCLINATION":69.9992,"RA_OF_ASC_NODE":64.99,"ARG_OF_PERICENTER":269.8532,"MEAN_ANOMALY":90.2264,"EPHEMERIS_TYPE":0,"CLASSIFICATION_TYPE":"U","NORAD_CAT_ID":55422,"ELEMENT_SET_NO":999,"REV_AT_EPOCH":17271,"BSTAR":-3.1767933e-5,"MEAN_MOTION_DOT":-4.72e-6,"MEAN_MOTION_DDOT":0},{"OBJECT_NAME":"STARLINK-5068","OBJECT_ID":"2023-014AJ","EPOCH":"2026-03-17T09:23:03.654528","MEAN_MOTION":14.98327392,"ECCENTRICITY":0.00031143,"INCLINATION":69.9995,"RA_OF_ASC_NODE":65.1237,"ARG_OF_PERICENTER":272.1497,"MEAN_ANOMALY":87.9305,"EPHEMERIS_TYPE":0,"CLASSIFICATION_TYPE":"U","NORAD_CAT_ID":55423,"ELEMENT_SET_NO":999,"REV_AT_EPOCH":17271,"BSTAR":0.00010490623,"MEAN_MOTION_DOT":1.159e-5,"MEAN_MOTION_DDOT":0},{"OBJECT_NAME":"STARLINK-5615","OBJECT_ID":"2023-014AL","EPOCH":"2026-03-17T09:11:02.305248","MEAN_MOTION":14.98329355,"ECCENTRICITY":0.00031358,"INCLINATION":69.9993,"RA_OF_ASC_NODE":65.0974,"ARG_OF_PERICENTER":270.4245,"MEAN_ANOMALY":89.6554,"EPHEMERIS_TYPE":0,"CLASSIFICATION_TYPE":"U","NORAD_CAT_ID":55425,"ELEMENT_SET_NO":999,"REV_AT_EPOCH":17271,"BSTAR":4.3011084e-5,"MEAN_MOTION_DOT":4.2e-6,"MEAN_MOTION_DDOT":0},{"OBJECT_NAME":"STARLINK-5638","OBJECT_ID":"2023-014AM","EPOCH":"2026-03-17T09:35:04.574400","MEAN_MOTION":14.98333495,"ECCENTRICITY":0.00030395,"INCLINATION":69.9993,"RA_OF_ASC_NODE":65.1531,"ARG_OF_PERICENTER":273.9707,"MEAN_ANOMALY":86.1105,"EPHEMERIS_TYPE":0,"CLASSIFICATION_TYPE":"U","NORAD_CAT_ID":55426,"ELEMENT_SET_NO":999,"REV_AT_EPOCH":17271,"BSTAR":4.0544064e-5,"MEAN_MOTION_DOT":3.91e-6,"MEAN_MOTION_DDOT":0},{"OBJECT_NAME":"STARLINK-5064","OBJECT_ID":"2023-014AP","EPOCH":"2026-03-17T09:47:06.023904","MEAN_MOTION":14.98332444,"ECCENTRICITY":0.00031313,"INCLINATION":69.9994,"RA_OF_ASC_NODE":65.1846,"ARG_OF_PERICENTER":267.8069,"MEAN_ANOMALY":92.2731,"EPHEMERIS_TYPE":0,"CLASSIFICATION_TYPE":"U","NORAD_CAT_ID":55428,"ELEMENT_SET_NO":999,"REV_AT_EPOCH":17271,"BSTAR":-1.5448405e-5,"MEAN_MOTION_DOT":-2.77e-6,"MEAN_MOTION_DDOT":0},{"OBJECT_NAME":"STARLINK-5645","OBJECT_ID":"2023-014AQ","EPOCH":"2026-03-17T09:29:04.434144","MEAN_MOTION":14.98329252,"ECCENTRICITY":0.00031424,"INCLINATION":69.9995,"RA_OF_ASC_NODE":65.1392,"ARG_OF_PERICENTER":276.1111,"MEAN_ANOMALY":83.969,"EPHEMERIS_TYPE":0,"CLASSIFICATION_TYPE":"U","NORAD_CAT_ID":55429,"ELEMENT_SET_NO":999,"REV_AT_EPOCH":17271,"BSTAR":-2.3207595e-5,"MEAN_MOTION_DOT":-3.7e-6,"MEAN_MOTION_DDOT":0},{"OBJECT_NAME":"STARLINK-5642","OBJECT_ID":"2023-014AR","EPOCH":"2026-03-17T10:53:30.028992","MEAN_MOTION":14.98332148,"ECCENTRICITY":0.0002987,"INCLINATION":69.9987,"RA_OF_ASC_NODE":84.8028,"ARG_OF_PERICENTER":272.5489,"MEAN_ANOMALY":87.5328,"EPHEMERIS_TYPE":0,"CLASSIFICATION_TYPE":"U","NORAD_CAT_ID":55430,"ELEMENT_SET_NO":999,"REV_AT_EPOCH":17223,"BSTAR":3.831996e-6,"MEAN_MOTION_DOT":-4.7e-7,"MEAN_MOTION_DDOT":0},{"OBJECT_NAME":"STARLINK-5643","OBJECT_ID":"2023-014AS","EPOCH":"2026-03-17T09:41:05.531136","MEAN_MOTION":14.98331833,"ECCENTRICITY":0.00030444,"INCLINATION":69.9992,"RA_OF_ASC_NODE":65.1697,"ARG_OF_PERICENTER":271.6198,"MEAN_ANOMALY":88.4612,"EPHEMERIS_TYPE":0,"CLASSIFICATION_TYPE":"U","NORAD_CAT_ID":55431,"ELEMENT_SET_NO":999,"REV_AT_EPOCH":17271,"BSTAR":3.6378699e-5,"MEAN_MOTION_DOT":3.41e-6,"MEAN_MOTION_DDOT":0},{"OBJECT_NAME":"STARLINK-5637","OBJECT_ID":"2023-014AT","EPOCH":"2026-03-17T11:05:47.003712","MEAN_MOTION":14.98327211,"ECCENTRICITY":0.00030396,"INCLINATION":69.9992,"RA_OF_ASC_NODE":84.8338,"ARG_OF_PERICENTER":258.1801,"MEAN_ANOMALY":101.9017,"EPHEMERIS_TYPE":0,"CLASSIFICATION_TYPE":"U","NORAD_CAT_ID":55432,"ELEMENT_SET_NO":999,"REV_AT_EPOCH":17223,"BSTAR":-1.2943394e-5,"MEAN_MOTION_DOT":-2.47e-6,"MEAN_MOTION_DDOT":0},{"OBJECT_NAME":"STARLINK-5570","OBJECT_ID":"2023-014AU","EPOCH":"2026-03-17T10:47:29.057568","MEAN_MOTION":14.98327633,"ECCENTRICITY":0.00026765,"INCLINATION":69.9986,"RA_OF_ASC_NODE":84.7871,"ARG_OF_PERICENTER":267.2964,"MEAN_ANOMALY":92.7889,"EPHEMERIS_TYPE":0,"CLASSIFICATION_TYPE":"U","NORAD_CAT_ID":55433,"ELEMENT_SET_NO":999,"REV_AT_EPOCH":17223,"BSTAR":0.00021021697,"MEAN_MOTION_DOT":2.416e-5,"MEAN_MOTION_DDOT":0},{"OBJECT_NAME":"STARLINK-5621","OBJECT_ID":"2023-014AV","EPOCH":"2026-03-17T17:42:04.980096","MEAN_MOTION":14.98325203,"ECCENTRICITY":0.0003311,"INCLINATION":69.9989,"RA_OF_ASC_NODE":84.1889,"ARG_OF_PERICENTER":267.3008,"MEAN_ANOMALY":92.7772,"EPHEMERIS_TYPE":0,"CLASSIFICATION_TYPE":"U","NORAD_CAT_ID":55434,"ELEMENT_SET_NO":999,"REV_AT_EPOCH":17227,"BSTAR":-5.2719e-5,"MEAN_MOTION_DOT":-7.22e-6,"MEAN_MOTION_DDOT":0},{"OBJECT_NAME":"STARLINK-5626","OBJECT_ID":"2023-014AW","EPOCH":"2026-03-17T11:05:31.717824","MEAN_MOTION":14.98331107,"ECCENTRICITY":0.0003235,"INCLINATION":69.9987,"RA_OF_ASC_NODE":84.8341,"ARG_OF_PERICENTER":266.7515,"MEAN_ANOMALY":93.3274,"EPHEMERIS_TYPE":0,"CLASSIFICATION_TYPE":"U","NORAD_CAT_ID":55435,"ELEMENT_SET_NO":999,"REV_AT_EPOCH":17223,"BSTAR":-2.5941817e-5,"MEAN_MOTION_DOT":-4.03e-6,"MEAN_MOTION_DDOT":0},{"OBJECT_NAME":"STARLINK-5640","OBJECT_ID":"2023-014AX","EPOCH":"2026-03-17T09:47:26.547360","MEAN_MOTION":14.98320397,"ECCENTRICITY":0.0003248,"INCLINATION":69.9988,"RA_OF_ASC_NODE":85.0451,"ARG_OF_PERICENTER":273.1449,"MEAN_ANOMALY":86.9338,"EPHEMERIS_TYPE":0,"CLASSIFICATION_TYPE":"U","NORAD_CAT_ID":55436,"ELEMENT_SET_NO":999,"REV_AT_EPOCH":17222,"BSTAR":0.00014157595,"MEAN_MOTION_DOT":1.596e-5,"MEAN_MOTION_DDOT":0},{"OBJECT_NAME":"STARLINK-5074","OBJECT_ID":"2023-014AZ","EPOCH":"2026-03-17T04:34:18.264288","MEAN_MOTION":14.98326604,"ECCENTRICITY":0.00030138,"INCLINATION":70.0002,"RA_OF_ASC_NODE":45.3725,"ARG_OF_PERICENTER":269.8944,"MEAN_ANOMALY":90.187,"EPHEMERIS_TYPE":0,"CLASSIFICATION_TYPE":"U","NORAD_CAT_ID":55438,"ELEMENT_SET_NO":999,"REV_AT_EPOCH":17318,"BSTAR":6.995322e-6,"MEAN_MOTION_DOT":-1.0e-7,"MEAN_MOTION_DDOT":0}]
